{
  "type": "FeatureCollection",
  "features": [
    {
      "type": "Feature",
      "properties": {
        "norad_id": 66361,
        "name": "STARLINK-35813",
        "group": "last-30-days",
        "lat": NaN,
        "lon": NaN,
        "alt_km": NaN,
        "timestamp": "2025-12-01T02:46:51.393162+00:00",
        "meta": {
          "OBJECT_NAME": "STARLINK-35813",
          "OBJECT_ID": "2025-254P",
          "EPOCH": "2025-11-30T19:29:30.391584",
          "MEAN_MOTION": 15.7429057,
          "ECCENTRICITY": 0.00011,
          "INCLINATION": 53.1583,
          "RA_OF_ASC_NODE": 334.1211,
          "ARG_OF_PERICENTER": 114.5953,
          "MEAN_ANOMALY": 245.5182,
          "EPHEMERIS_TYPE": 0,
          "CLASSIFICATION_TYPE": "U",
          "NORAD_CAT_ID": 66361,
          "ELEMENT_SET_NO": 999,
          "REV_AT_EPOCH": 380,
          "BSTAR": 0.0022726,
          "MEAN_MOTION_DOT": 0.0034783,
          "MEAN_MOTION_DDOT": 0
        }
      },
      "geometry": {
        "type": "Point",
        "coordinates": [
          NaN,
          NaN
        ]
      }
    },
    {
      "type": "Feature",
      "properties": {
        "norad_id": 66362,
        "name": "STARLINK-35822",
        "group": "last-30-days",
        "lat": NaN,
        "lon": NaN,
        "alt_km": NaN,
        "timestamp": "2025-12-01T02:46:51.393179+00:00",
        "meta": {
          "OBJECT_NAME": "STARLINK-35822",
          "OBJECT_ID": "2025-254Q",
          "EPOCH": "2025-11-30T19:28:02.936640",
          "MEAN_MOTION": 15.74281357,
          "ECCENTRICITY": 0.0001288,
          "INCLINATION": 53.1579,
          "RA_OF_ASC_NODE": 334.114,
          "ARG_OF_PERICENTER": 105.2766,
          "MEAN_ANOMALY": 254.8396,
          "EPHEMERIS_TYPE": 0,
          "CLASSIFICATION_TYPE": "U",
          "NORAD_CAT_ID": 66362,
          "ELEMENT_SET_NO": 999,
          "REV_AT_EPOCH": 380,
          "BSTAR": 0.0021324,
          "MEAN_MOTION_DOT": 0.0032533,
          "MEAN_MOTION_DDOT": 0
        }
      },
      "geometry": {
        "type": "Point",
        "coordinates": [
          NaN,
          NaN
        ]
      }
    },
    {
      "type": "Feature",
      "properties": {
        "norad_id": 66363,
        "name": "STARLINK-35806",
        "group": "last-30-days",
        "lat": NaN,
        "lon": NaN,
        "alt_km": NaN,
        "timestamp": "2025-12-01T02:46:51.393195+00:00",
        "meta": {
          "OBJECT_NAME": "STARLINK-35806",
          "OBJECT_ID": "2025-254R",
          "EPOCH": "2025-11-30T19:28:32.062080",
          "MEAN_MOTION": 15.74286073,
          "ECCENTRICITY": 0.0001253,
          "INCLINATION": 53.1583,
          "RA_OF_ASC_NODE": 334.116,
          "ARG_OF_PERICENTER": 115.6158,
          "MEAN_ANOMALY": 244.4991,
          "EPHEMERIS_TYPE": 0,
          "CLASSIFICATION_TYPE": "U",
          "NORAD_CAT_ID": 66363,
          "ELEMENT_SET_NO": 999,
          "REV_AT_EPOCH": 380,
          "BSTAR": 0.00222,
          "MEAN_MOTION_DOT": 0.00339364,
          "MEAN_MOTION_DDOT": 0
        }
      },
      "geometry": {
        "type": "Point",
        "coordinates": [
          NaN,
          NaN
        ]
      }
    },
    {
      "type": "Feature",
      "properties": {
        "norad_id": 66364,
        "name": "STARLINK-35797",
        "group": "last-30-days",
        "lat": NaN,
        "lon": NaN,
        "alt_km": NaN,
        "timestamp": "2025-12-01T02:46:51.393212+00:00",
        "meta": {
          "OBJECT_NAME": "STARLINK-35797",
          "OBJECT_ID": "2025-254S",
          "EPOCH": "2025-11-30T19:27:33.709248",
          "MEAN_MOTION": 15.74282351,
          "ECCENTRICITY": 0.0001229,
          "INCLINATION": 53.1579,
          "RA_OF_ASC_NODE": 334.1113,
          "ARG_OF_PERICENTER": 90.7219,
          "MEAN_ANOMALY": 269.3941,
          "EPHEMERIS_TYPE": 0,
          "CLASSIFICATION_TYPE": "U",
          "NORAD_CAT_ID": 66364,
          "ELEMENT_SET_NO": 999,
          "REV_AT_EPOCH": 380,
          "BSTAR": 0.0021345,
          "MEAN_MOTION_DOT": 0.00325679,
          "MEAN_MOTION_DDOT": 0
        }
      },
      "geometry": {
        "type": "Point",
        "coordinates": [
          NaN,
          NaN
        ]
      }
    },
    {
      "type": "Feature",
      "properties": {
        "norad_id": 66365,
        "name": "STARLINK-35827",
        "group": "last-30-days",
        "lat": NaN,
        "lon": NaN,
        "alt_km": NaN,
        "timestamp": "2025-12-01T02:46:51.393228+00:00",
        "meta": {
          "OBJECT_NAME": "STARLINK-35827",
          "OBJECT_ID": "2025-254T",
          "EPOCH": "2025-11-30T19:26:35.303712",
          "MEAN_MOTION": 15.74285169,
          "ECCENTRICITY": 0.0001101,
          "INCLINATION": 53.1578,
          "RA_OF_ASC_NODE": 334.1072,
          "ARG_OF_PERICENTER": 96.418,
          "MEAN_ANOMALY": 263.6965,
          "EPHEMERIS_TYPE": 0,
          "CLASSIFICATION_TYPE": "U",
          "NORAD_CAT_ID": 66365,
          "ELEMENT_SET_NO": 999,
          "REV_AT_EPOCH": 380,
          "BSTAR": 0.0021696,
          "MEAN_MOTION_DOT": 0.00331307,
          "MEAN_MOTION_DDOT": 0
        }
      },
      "geometry": {
        "type": "Point",
        "coordinates": [
          NaN,
          NaN
        ]
      }
    },
    {
      "type": "Feature",
      "properties": {
        "norad_id": 66366,
        "name": "STARLINK-35845",
        "group": "last-30-days",
        "lat": NaN,
        "lon": NaN,
        "alt_km": NaN,
        "timestamp": "2025-12-01T02:46:51.393244+00:00",
        "meta": {
          "OBJECT_NAME": "STARLINK-35845",
          "OBJECT_ID": "2025-254U",
          "EPOCH": "2025-11-30T19:27:04.574304",
          "MEAN_MOTION": 15.74274154,
          "ECCENTRICITY": 8.66e-05,
          "INCLINATION": 53.1578,
          "RA_OF_ASC_NODE": 334.1087,
          "ARG_OF_PERICENTER": 124.8899,
          "MEAN_ANOMALY": 235.2202,
          "EPHEMERIS_TYPE": 0,
          "CLASSIFICATION_TYPE": "U",
          "NORAD_CAT_ID": 66366,
          "ELEMENT_SET_NO": 999,
          "REV_AT_EPOCH": 380,
          "BSTAR": 0.0020991,
          "MEAN_MOTION_DOT": 0.00319933,
          "MEAN_MOTION_DDOT": 0
        }
      },
      "geometry": {
        "type": "Point",
        "coordinates": [
          NaN,
          NaN
        ]
      }
    },
    {
      "type": "Feature",
      "properties": {
        "norad_id": 66367,
        "name": "STARLINK-35846",
        "group": "last-30-days",
        "lat": NaN,
        "lon": NaN,
        "alt_km": NaN,
        "timestamp": "2025-12-01T02:46:51.393263+00:00",
        "meta": {
          "OBJECT_NAME": "STARLINK-35846",
          "OBJECT_ID": "2025-254V",
          "EPOCH": "2025-11-30T19:26:06.141984",
          "MEAN_MOTION": 15.74279807,
          "ECCENTRICITY": 0.0001185,
          "INCLINATION": 53.1578,
          "RA_OF_ASC_NODE": 334.1041,
          "ARG_OF_PERICENTER": 101.8173,
          "MEAN_ANOMALY": 258.2979,
          "EPHEMERIS_TYPE": 0,
          "CLASSIFICATION_TYPE": "U",
          "NORAD_CAT_ID": 66367,
          "ELEMENT_SET_NO": 999,
          "REV_AT_EPOCH": 380,
          "BSTAR": 0.0021439,
          "MEAN_MOTION_DOT": 0.0032714,
          "MEAN_MOTION_DDOT": 0
        }
      },
      "geometry": {
        "type": "Point",
        "coordinates": [
          NaN,
          NaN
        ]
      }
    },
    {
      "type": "Feature",
      "properties": {
        "norad_id": 66368,
        "name": "STARLINK-34861",
        "group": "last-30-days",
        "lat": NaN,
        "lon": NaN,
        "alt_km": NaN,
        "timestamp": "2025-12-01T02:46:51.393280+00:00",
        "meta": {
          "OBJECT_NAME": "STARLINK-34861",
          "OBJECT_ID": "2025-254W",
          "EPOCH": "2025-11-30T19:25:07.726944",
          "MEAN_MOTION": 15.74284028,
          "ECCENTRICITY": 0.0001002,
          "INCLINATION": 53.1574,
          "RA_OF_ASC_NODE": 334.0984,
          "ARG_OF_PERICENTER": 107.1347,
          "MEAN_ANOMALY": 252.9783,
          "EPHEMERIS_TYPE": 0,
          "CLASSIFICATION_TYPE": "U",
          "NORAD_CAT_ID": 66368,
          "ELEMENT_SET_NO": 999,
          "REV_AT_EPOCH": 380,
          "BSTAR": 0.0022167,
          "MEAN_MOTION_DOT": 0.00338804,
          "MEAN_MOTION_DDOT": 0
        }
      },
      "geometry": {
        "type": "Point",
        "coordinates": [
          NaN,
          NaN
        ]
      }
    }
  ]
}