STARLINK-35813          
1 66361U 25254P   25334.81215731  .00347830  00000+0  22726-2 0  9990
2 66361  53.1583 334.1211 0001100 114.5953 245.5182 15.74290570  3802
STARLINK-35822          
1 66362U 25254Q   25334.81114510  .00325330  00000+0  21324-2 0  9998
2 66362  53.1579 334.1140 0001288 105.2766 254.8396 15.74281357  3808
STARLINK-35806          
1 66363U 25254R   25334.81148220  .00339364  00000+0  22200-2 0  9990
2 66363  53.1583 334.1160 0001253 115.6158 244.4991 15.74286073  3804
STARLINK-35797          
1 66364U 25254S   25334.81080682  .00325679  00000+0  21345-2 0  9991
2 66364  53.1579 334.1113 0001229  90.7219 269.3941 15.74282351  3808
STARLINK-35827          
1 66365U 25254T   25334.81013083  .00331307  00000+0  21696-2 0  9997
2 66365  53.1578 334.1072 0001101  96.4180 263.6965 15.74285169  3804
STARLINK-35845          
1 66366U 25254U   25334.81046961  .00319933  00000+0  20991-2 0  9997
2 66366  53.1578 334.1087 0000866 124.8899 235.2202 15.74274154  3802
STARLINK-35846          
1 66367U 25254V   25334.80979331  .00327140  00000+0  21439-2 0  9990
2 66367  53.1578 334.1041 0001185 101.8173 258.2979 15.74279807  3804
STARLINK-34861          
1 66368U 25254W   25334.80911721  .00338804  00000+0  22167-2 0  9998
2 66368  53.1574 334.0984 0001002 107.1347 252.9783 15.74284028  3801
